{
  "norad_id": 47806,
  "name": "STARLINK-2387",
  "history": [
    {
      "epoch": "2026-03-28T14:22:55.193952",
      "apogee_km": 476.0935302599555,
      "perigee_km": 474.3760752861799,
      "latitude_deg": -51.781591669121426,
      "longitude_deg": 98.12799328030087,
      "semi_major_axis_km": 6853.371802773067,
      "eccentricity": 0.0001253,
      "inclination_deg": 53.1604,
      "raan_deg": 154.6102,
      "arg_perigee_deg": 83.3882,
      "mean_anomaly_deg": 276.7262,
      "mean_motion_rev_day": 15.30193391
    }
  ]
}